GOMX-1                  
1 39430U 13066Q   26160.49132678  .00001791  00000+0  27315-3 0  9998
2 39430  97.6494   1.4397 0130156 101.9869 259.5961 14.69431192668786
CUBEBUG-2 (LO-74)       
1 39440U 13066AA  26160.42661911  .00003357  00000+0  31222-3 0  9991
2 39440  97.8902 109.3723 0059152  54.2261 306.4438 14.93700352675835
NEE-02 KRYSAOR          
1 39441U 13066AB  26160.33408551  .00001823  00000+0  20357-3 0  9994
2 39441  97.8886  99.6051 0067737  95.3375 265.5574 14.86584933675037
FUNCUBE-1 (AO-73)       
1 39444U 13066AE  26160.43303962  .00004901  00000+0  30669-3 0  9995
2 39444  97.8268 131.7174 0034858 227.8994 131.9269 15.09396559678496
UWE-3                   
1 39446U 13066AG  26160.12782108  .00003499  00000+0  30256-3 0  9999
2 39446  97.8686 116.1479 0048769 348.2293  11.7784 14.96959057676378
SMDC ONE 2.4            
1 39469U 13072H   26160.29891060  .00007746  00000+0  30300-3 0  9996
2 39469 120.4934 321.6312 0144186  10.6177 349.7893 15.18033237116633
COSMOS 2488 (RODNIK-S 7)
1 39483U 13076A   26160.47121050  .00000045  00000+0  25532-3 0  9997
2 39483  82.4834 173.5025 0020764 111.2190 249.1111 12.42905515564935
COSMOS 2489 (RODNIK-S 8)
1 39484U 13076B   26160.52674547  .00000045  00000+0  25263-3 0  9999
2 39484  82.4871 174.8441 0022590 111.1267 249.2230 12.42879438564999
COSMOS 2490 (RODNIK-S 9)
1 39485U 13076C   26160.49862294  .00000039  00000+0  21118-3 0  9992
2 39485  82.4817 172.9324 0022566 126.1377 234.1795 12.42877816564920
KAZEOSAT 1              
1 39731U 14024A   26160.45876221  .00000146  00000+0  57516-4 0  9992
2 39731  98.3202 233.0981 0001455  75.1835 284.9516 14.42077269637440
COSMOS 2496 (RODNIK-S *)
1 39761U 14028A   26160.53666003  .00000088  00000+0  56070-3 0  9991
2 39761  82.4444 113.5227 0021263  94.6084 265.7425 12.42878518546563
COSMOS 2497 (RODNIK-S *)
1 39762U 14028B   26160.51203819  .00000075  00000+0  47213-3 0  9997
2 39762  82.4492 115.2250 0021855  89.9308 270.4276 12.42894084546568
COSMOS 2498 (RODNIK-S *)
1 39763U 14028C   26160.49017101  .00000064  00000+0  38957-3 0  9995
2 39763  82.4453 113.7291 0022544  89.6085 270.7578 12.42980076546597
HODOYOSHI-4             
1 40011U 14033B   26160.50314951  .00000430  00000+0  52195-4 0  9992
2 40011  97.5458 345.6968 0023156 334.8485  25.1603 14.88109026647664
UNISAT-6                
1 40012U 14033C   26160.40122271  .00002405  00000+0  26157-3 0  9996
2 40012  97.7869 313.2514 0046432  94.2161 266.4364 14.88204190645009
DEIMOS-2                
1 40013U 14033D   26160.54643531  .00001999  00000+0  19406-3 0  9995
2 40013  97.5841  35.3034 0002022  61.0326 299.1097 14.93709135636583
BUGSAT-1 (TITA)         
1 40014U 14033E   26160.50944462  .00004457  00000+0  23719-3 0  9993
2 40014  98.0418 252.6096 0027459 204.5639 155.4286 15.15502539654672
SAUDISAT 4              
1 40016U 14033G   26160.40905223  .00000673  00000+0  95158-4 0  9999
2 40016  97.7574 306.8134 0046230  98.5110 262.1345 14.79533907644922
APRIZESAT 9             
1 40018U 14033J   26160.33415850  .00000594  00000+0  94845-4 0  9999
2 40018  97.9050 293.7252 0065171 224.6876 134.9071 14.74203919642401
BRITE-CA1 (TORONTO)     
1 40020U 14033L   26160.36004236  .00000618  00000+0  10079-3 0  9990
2 40020  97.9729 289.4327 0077422 302.5173  56.8569 14.72665836641063
DUCHIFAT-1              
1 40021U 14033M   26160.40712241  .00091547  00000+0  99932-3 0  9994
2 40021  98.0469 218.4842 0004339 129.4692 230.6949 15.63050538654538
NANOSATC-BR1            
1 40024U 14033Q   26160.03741032  .00014864  00000+0  49566-3 0  9991
2 40024  98.0734 191.7047 0003543 185.9906 174.1292 15.31195370652739
